NOAA 15                 
1 25338U 98030A   23263.34799656  .00000289  00000+0  13818-3 0  9998
2 25338  98.6005 290.7554 0011009  41.4520 318.7494 14.26391782318821
NOAA 18                 
1 28654U 05018A   23263.37894546  .00000327  00000+0  19909-3 0  9993
2 28654  98.9029 337.2825 0015298 110.0555 250.2265 14.13009150945011
NOAA 19                 
1 33591U 09005A   23263.36460833  .00000279  00000+0  17469-3 0  9991
2 33591  99.0905 310.7732 0013356 339.1005  20.9619 14.12823802753381
METOP-B                 
1 38771U 12049A   23263.39222104  .00000240  00000+0  12941-3 0  9996
2 38771  98.6691 321.1331 0001366  98.9864 271.9342 14.21516599571072
SARAL                   
1 39086U 13009A   23261.85233655  .00000194  00000+0  88149-4 0  9997
2 39086  98.5499  85.7933 0002411  36.9589 323.1760 14.32259696552095
METOP-C                 
1 43689U 18087A   23263.42708251  .00000231  00000+0  12550-3 0  9990
2 43689  98.6738 321.3529 0003400 134.6858 225.4597 14.21519325252657
ANGELS                  
1 44876U 19092D   23263.41921869  .00007959  00000+0  34709-3 0  9991
2 44876  97.4794  87.5203 0010649 185.6440 174.4678 15.22389045208101
GAZELLE                 
1 54023U 22127A   23261.97818672  .00000269  00000+0  95306-4 0  9993
2 54023  98.3296 257.5873 0012950 338.3622  21.7019 14.41897363 49890
EOS-6 (OCEANSAT-3)      
1 54361U 22158A   23263.36785417  .00000717  00000+0  20898-3 0  9998
2 54361  98.3537 359.0693 0001176 105.5717 254.5605 14.47009998 43108
